NORAD_CAT_ID,OBJECT_NAME,OBJECT_TYPE,EPOCH,MEAN_MOTION,ECCENTRICITY,INCLINATION,RA_OF_ASC_NODE,ARG_OF_PERICENTER,MEAN_ANOMALY,BSTAR,MEAN_MOTION_DOT,MEAN_MOTION_DDOT,TLE_LINE0,TLE_LINE1,TLE_LINE2,SEMIMAJOR_AXIS,PERIOD,APOGEE,PERIGEE,DECAYED
55917.0,STARLINK-5855,PAYLOAD,2024-01-18 13:34:36,15.04360963,0.0004634,69.999,111.907,299.2439,60.8259,0.0020659,0.00028903,0.0,0 STARLINK-5855,1 55917U 23037D   24018.56569450  .00028903  00000-0  20659-2 0  9993,2 55917  69.9990 111.9070 0004634 299.2439  60.8259 15.04360963 46530,6931.605,95.722,556.682,550.258,0.0
55917.0,STARLINK-5855,PAYLOAD,2024-01-18 15:10:20,15.04364855,0.000465,69.999,111.7374,300.0713,59.9988,0.0020883,0.00029222,0.0,0 STARLINK-5855,1 55917U 23037D   24018.63218696  .00029222  00000-0  20883-2 0  9998,2 55917  69.9990 111.7374 0004650 300.0713  59.9988 15.04364855 46542,6931.593,95.721,556.681,550.235,0.0
55917.0,STARLINK-5855,PAYLOAD,2024-01-19 11:55:03,15.04417917,0.0004824,69.999,109.537,301.1255,58.9434,0.0021206,0.0002972,0.0,0 STARLINK-5855,1 55917U 23037D   24019.49657037  .00029720  00000-0  21206-2 0  9992,2 55917  69.9990 109.5370 0004824 301.1255  58.9434 15.04417917 47015,6931.43,95.718,556.639,549.951,0.0
55917.0,STARLINK-5855,PAYLOAD,2024-01-19 13:30:48,15.0442196,0.000486,69.9991,109.3677,301.4643,58.6043,0.0021254,0.00029791,0.0,0 STARLINK-5855,1 55917U 23037D   24019.56306022  .00029791  00000-0  21254-2 0  9996,2 55917  69.9991 109.3677 0004860 301.4643  58.6043 15.04421960 46686,6931.418,95.718,556.651,549.914,0.0
55917.0,STARLINK-5855,PAYLOAD,2024-01-19 16:42:17,15.04429057,0.0004912,69.999,109.0292,301.967,58.1014,0.0020692,0.00029003,0.0,0 STARLINK-5855,1 55917U 23037D   24019.69603957  .00029003  00000-0  20692-2 0  9998,2 55917  69.9990 109.0292 0004912 301.9670  58.1014 15.04429057 46709,6931.396,95.717,556.666,549.856,0.0
55917.0,STARLINK-5855,PAYLOAD,2024-01-20 15:02:41,15.04480956,0.0004935,69.9994,106.6599,300.7556,59.312,0.001921,0.00026948,0.0,0 STARLINK-5855,1 55917U 23037D   24020.62687414  .00026948  00000-0  19210-2 0  9992,2 55917  69.9994 106.6599 0004935 300.7556  59.3120 15.04480956 46842,6931.236,95.714,556.522,549.681,0.0
55917.0,STARLINK-5855,PAYLOAD,2024-01-21 07:00:05,15.04520147,0.000496,69.9996,104.9673,299.6582,60.4086,0.0019366,0.00027198,0.0,0 STARLINK-5855,1 55917U 23037D   24021.29173591  .00027198  00000-0  19366-2 0  9992,2 55917  69.9996 104.9673 0004960 299.6582  60.4086 15.04520147 46943,6931.116,95.712,556.419,549.543,0.0
55917.0,STARLINK-5855,PAYLOAD,2024-01-21 14:58:47,15.04538811,0.0005006,69.9996,104.1209,299.8308,60.2356,0.0020903,0.00029388,0.0,0 STARLINK-5855,1 55917U 23037D   24021.62416107  .00029388  00000-0  20903-2 0  9994,2 55917  69.9996 104.1209 0005006 299.8308  60.2356 15.04538811 46990,6931.059,95.71,556.393,549.454,0.0
55917.0,STARLINK-5855,PAYLOAD,2024-01-22 06:56:09,15.04573745,0.0005012,69.9998,102.4281,298.3983,61.6674,0.0017641,0.00024793,0.0,0 STARLINK-5855,1 55917U 23037D   24022.28899847  .00024793  00000-0  17641-2 0  9993,2 55917  69.9998 102.4281 0005012 298.3983  61.6674 15.04573745 47098,6930.951,95.708,556.29,549.343,0.0
55917.0,STARLINK-5855,PAYLOAD,2024-01-22 11:43:21,15.04582975,0.0005038,69.9999,101.9203,298.4263,61.6391,0.0018347,0.000258,0.0,0 STARLINK-5855,1 55917U 23037D   24022.48844714  .00025800  00000-0  18347-2 0  9992,2 55917  69.9999 101.9203 0005038 298.4263  61.6391 15.04582975 47469,6930.923,95.708,556.28,549.296,0.0
55917.0,STARLINK-5855,PAYLOAD,2024-01-22 14:54:50,15.04589991,0.0005067,69.9999,101.5818,298.8554,61.2099,0.0018559,0.00026105,0.0,0 STARLINK-5855,1 55917U 23037D   24022.62141207  .00026105  00000-0  18559-2 0  9999,2 55917  69.9999 101.5818 0005067 298.8554  61.2099 15.04589991 47147,6930.902,95.707,556.278,549.255,0.0
55917.0,STARLINK-5855,PAYLOAD,2024-01-23 06:52:09,15.0463196,0.000508,70.0,99.8889,298.0108,62.054,0.0020272,0.00028566,0.0,0 STARLINK-5855,1 55917U 23037D   24023.28622482  .00028566  00000-0  20272-2 0  9999,2 55917  70.0000  99.8889 0005080 298.0108  62.0540 15.04631960 47247,6930.773,95.704,556.158,549.117,0.0
55917.0,STARLINK-5855,PAYLOAD,2024-01-23 14:50:49,15.04647451,0.0005211,70.0,99.0425,299.307,60.7571,0.0019077,0.00026881,0.0,0 STARLINK-5855,1 55917U 23037D   24023.61862594  .00026881  00000-0  19077-2 0  9995,2 55917  70.0000  99.0425 0005211 299.3070  60.7571 15.04647451 47637,6930.725,95.703,556.202,548.978,0.0
55917.0,STARLINK-5855,PAYLOAD,2024-01-24 14:46:45,15.0469272,0.0004796,70.001,96.5048,298.9781,61.09,0.0013984,0.00019681,0.0,0 STARLINK-5855,1 55917U 23037D   24024.61580518  .00019681  00000-0  13984-2 0  9990,2 55917  70.0010  96.5048 0004796 298.9781  61.0900 15.04692720 47440,6930.586,95.701,555.775,549.127,0.0
55917.0,STARLINK-5855,PAYLOAD,2024-01-25 11:31:11,15.04738013,0.0005276,69.9996,94.3026,299.1956,60.8679,0.0016803,0.00023712,0.0,0 STARLINK-5855,1 55917U 23037D   24025.47999957  .00023712  00000-0  16803-2 0  9999,2 55917  69.9996  94.3026 0005276 299.1956  60.8679 15.04738013 47911,6930.447,95.698,555.969,548.655,0.0
55917.0,STARLINK-5855,PAYLOAD,2024-01-25 14:42:38,15.04743643,0.0005264,69.9996,93.964,299.306,60.7576,0.0017648,0.00024917,0.0,0 STARLINK-5855,1 55917U 23037D   24025.61295131  .00024917  00000-0  17648-2 0  9994,2 55917  69.9996  93.9640 0005264 299.3060  60.7576 15.04743643 47597,6930.43,95.697,555.943,548.647,0.0
55917.0,STARLINK-5855,PAYLOAD,2024-01-26 14:38:30,15.04784068,0.0005289,69.9992,91.4242,299.8703,60.1933,0.0015424,0.00021779,0.0,0 STARLINK-5855,1 55917U 23037D   24026.61007035  .00021779  00000-0  15424-2 0  9992,2 55917  69.9992  91.4242 0005289 299.8703  60.1933 15.04784068 47744,6930.306,95.695,555.836,548.505,0.0
55917.0,STARLINK-5855,PAYLOAD,2024-01-27 12:58:35,15.04821783,0.0005319,69.9989,89.0536,300.1866,59.8769,0.0014612,0.00020645,0.0,0 STARLINK-5855,1 55917U 23037D   24027.54069023  .00020645  00000-0  14612-2 0  9999,2 55917  69.9989  89.0536 0005319 300.1866  59.8769 15.04821783 47882,6930.19,95.692,555.741,548.369,0.0
55917.0,STARLINK-5855,PAYLOAD,2024-01-28 04:55:46,15.04850313,0.0005317,69.9988,87.3599,300.0168,60.0467,0.0015435,0.00021833,0.0,0 STARLINK-5855,1 55917U 23037D   24028.20540489  .00021833  00000-0  15435-2 0  9997,2 55917  69.9988  87.3599 0005317 300.0168  60.0467 15.04850313 48323,6930.102,95.691,555.652,548.282,0.0
55917.0,STARLINK-5855,PAYLOAD,2024-01-28 12:54:22,15.04858179,0.0005325,69.9987,86.5137,299.4658,60.5973,0.001291,0.0001824,0.0,0 STARLINK-5855,1 55917U 23037D   24028.53775893  .00018240  00000-0  12910-2 0  9995,2 55917  69.9987  86.5137 0005325 299.4658  60.5973 15.04858179 48038,6930.078,95.69,555.633,548.253,0.0
55917.0,STARLINK-5855,PAYLOAD,2024-01-29 11:14:24,15.04893613,0.0005246,69.9987,84.1436,297.6497,62.4132,0.0014058,0.00019894,0.0,0 STARLINK-5855,1 55917U 23037D   24029.46833483  .00019894  00000-0  14058-2 0  9999,2 55917  69.9987  84.1436 0005246 297.6497  62.4132 15.04893613 48172,6929.969,95.688,555.47,548.199,0.0
55917.0,STARLINK-5855,PAYLOAD,2024-01-30 04:47:15,15.04917419,0.00052,69.9987,82.2808,296.6123,63.4506,0.0012672,0.00017929,0.0,0 STARLINK-5855,1 55917U 23037D   24030.19948765  .00017929  00000-0  12672-2 0  9998,2 55917  69.9987  82.2808 0005200 296.6123  63.4506 15.04917419 48626,6929.896,95.686,555.365,548.158,0.0
55917.0,STARLINK-5855,PAYLOAD,2024-01-30 12:45:49,15.04926992,0.0005331,69.9986,81.4337,297.1171,62.9448,0.0011871,0.00016792,0.0,0 STARLINK-5855,1 55917U 23037D   24030.53182633  .00016792  00000-0  11871-2 0  9997,2 55917  69.9986  81.4337 0005331 297.1171  62.9448 15.04926992 48330,6929.867,95.686,555.426,548.037,0.0
55917.0,STARLINK-5855,PAYLOAD,2024-01-31 11:05:48,15.04954728,0.0005284,69.9988,79.062,295.4741,64.5874,0.0011422,0.00016163,0.0,0 STARLINK-5855,1 55917U 23037D   24031.46236158  .00016163  00000-0  11422-2 0  9996,2 55917  69.9988  79.0620 0005284 295.4741  64.5874 15.04954728 48813,6929.782,95.684,555.308,547.985,0.0
55917.0,STARLINK-5855,PAYLOAD,2024-01-31 12:41:30,15.04957604,0.0005371,69.9988,78.8929,295.9222,64.1387,0.0011253,0.00015923,0.0,0 STARLINK-5855,1 55917U 23037D   24031.52882751  .00015923  00000-0  11253-2 0  9994,2 55917  69.9988  78.8929 0005371 295.9222  64.1387 15.04957604 48482,6929.773,95.684,555.36,547.916,0.0
55917.0,STARLINK-5855,PAYLOAD,2024-02-01 11:01:27,15.0498202,0.0005412,69.999,76.5221,295.0516,65.0084,0.00094153,0.00013311,0.0,0 STARLINK-5855,1 55917U 23037D   24032.45934482  .00013311  00000-0  94153-3 0  9996,2 55917  69.9990  76.5221 0005412 295.0516  65.0084 15.04982020 48628,6929.698,95.682,555.313,547.813,0.0
55917.0,STARLINK-5855,PAYLOAD,2024-02-02 04:34:15,15.05011244,0.0004343,70.0013,74.6629,294.4399,65.631,0.00098062,0.00013878,0.0,0 STARLINK-5855,1 55917U 23037D   24033.19045346  .00013878  00000-0  98062-3 0  9991,2 55917  70.0013  74.6629 0004343 294.4399  65.6310 15.05011244 49072,6929.608,95.68,554.483,548.464,0.0
55917.0,STARLINK-5855,PAYLOAD,2024-02-02 10:57:05,15.05004867,0.0004662,70.0008,73.9847,289.6238,70.4421,0.0006063,8.535e-05,0.0,0 STARLINK-5855,1 55917U 23037D   24033.45631007  .00008535  00000-0  60630-3 0  9999,2 55917  70.0008  73.9847 0004662 289.6238  70.4421 15.05004867 49117,6929.628,95.681,554.723,548.262,0.0
55917.0,STARLINK-5855,PAYLOAD,2024-02-02 12:32:47,15.05006979,0.0005297,70.0,73.813,297.9633,62.0993,0.00067528,9.52e-05,0.0,0 STARLINK-5855,1 55917U 23037D   24033.52277511  .00009520  00000-0  67528-3 0  9991,2 55917  70.0000  73.8130 0005297 297.9633  62.0993 15.05006979 48788,6929.621,95.681,555.157,547.816,0.0
55917.0,STARLINK-5855,PAYLOAD,2024-02-03 04:29:51,15.050309,0.0005446,69.9997,72.1189,295.9142,64.1459,0.0009512,0.00013466,0.0,0 STARLINK-5855,1 55917U 23037D   24034.18740636  .00013466  00000-0  95120-3 0  9990,2 55917  69.9997  72.1189 0005446 295.9142  64.1459 15.05030900 49226,6929.548,95.679,555.187,547.639,0.0
